KUIPER-00089            
1 64834U 25151U   25205.91668981  .00045689  00000+0  13215-2 0  9996
2 64834  51.8782 245.9275 0005758 182.6777 134.0869 15.35149984  2401
KUIPER-00090            
1 64835U 25151V   25205.91668981  .00042850  00000+0  12494-2 0  9992
2 64835  51.8778 245.9404 0006182 191.7927 117.7405 15.34924410  1307
KUIPER-00091            
1 64836U 25151W   25206.16668981  .00014932  00000+0  43438-3 0  9994
2 64836  51.8776 244.6896 0006278 165.7130 107.5782 15.35630576  1358
KUIPER-00092            
1 64837U 25151X   25205.91668981  .00043918  00000+0  12615-2 0  9995
2 64837  51.8770 245.9070 0005796 173.4058 150.4251 15.35385132  1588
KUIPER-00093            
1 64838U 25151Y   25206.16668981  .00015749  00000+0  46309-3 0  9993
2 64838  51.8783 244.7230 0005422 176.6089  82.6368 15.35252614  1351
KUIPER-00094            
1 64839U 25151Z   25206.16668981  .00016736  00000+0  48782-3 0  9998
2 64839  51.8773 244.7002 0005551 172.0450  95.5990 15.35480055  1595
